NEXTSAT-1               
1 43811U 18099BF  26068.68342010  .00004546  00000+0  29857-3 0  9992
2 43811  97.4203 114.8574 0011320 323.9610  36.0854 15.08057555396886
STARLINK-4303           
1 53544U 22101T   26068.22478889 -.00000245  00000+0  27006-5 0  9998
2 53544  53.2179  66.2102 0001366  95.7159 264.3989 15.08836273196908
